#dP2022 12 18  0  0  0.00000000      96 __u+U ITR14 FIT  IAC
## 2241      0.00000000   900.00000000 59931 0.0000000000000
+  129   C01C02C03C04C05C06C07C08C09C10C11C12C13C14C16C19C20
+        C21C22C23C24C25C26C27C28C29C30C32C33C34C35C36C37C38
+        C39C40C41C42C43C44C45C46C59C60E01E02E03E04E05E07E08
+        E09E10E11E12E13E14E15E18E19E21E24E25E26E27E30E31E33
+        E34E36G01G02G03G04G05G06G07G08G09G10G11G12G13G14G15
+        G16G17G18G19G20G21G22G23G24G25G26G27G29G30G31G32J02
+        J03J04J07R01R02R03R04R05R06R07R08R09R10R11R12R13R14
+        R15R17R18R19R20R21R22R23R24R25  0  0  0  0  0  0  0
++        17 20 17 17 17  9 11 10  9 11  9  9  9  9  9  7  7
++         7  7  7  7  7  7  7  7  7  7  7  7  8  7  7  7  8
++         8  8  7  8  8  7  7  7  0 17  4  4  4  4  4  4  4
++         4  5  7  4  4  5  4  4  5  4  4  5  4  4  4  4  4
++         4  5  4  4  4  4  4  4  4  4  4  4  4  4  4  4  4
++         4  4  4  4  4  4  4  4  3  4  4  4  4  4  4  3  8
++         8  9 17  7  6  6  6  6 15  6  6  6 15  6  6  7  6
++         6  6  6  7  8  6  8 15  6  8  0  0  0  0  0  0  0
%c M  cc GPS ccc cccc cccc cccc cccc ccccc ccccc ccccc ccccc
%c cc cc ccc ccc cccc cccc cccc cccc ccccc ccccc ccccc ccccc
%f  0.0000000  0.000000000  0.00000000000  0.000000000000000
%f  0.0000000  0.000000000  0.00000000000  0.000000000000000
%i    0    0    0    0      0      0      0      0         0
%i    0    0    0    0      0      0      0      0         0
/* INFORMATION & ANALYSIS CENTER (IAC)            RAPID DATA
/* S/V CLOCKS ARE ALIGNED TO GNSS TIME                      
/* G:C1WC2W R:C1PC2P E:C1XC5X C:C2IC6I J:C1CC2S             
/* PCV:IGS20_2239 OL/AL:FES2004  NONE     YN ORB:CoN CLK:CoN
*  2022 12 18 19 30  0.00000000
PC01 -34295.256122  24486.572804    956.671842    927.943597
PC02   4275.033037  41945.622088    392.028242    150.858408
PC03 -14811.323330  39448.864116   1154.940306    -41.723120
PC04 -39573.034751  14490.926843    487.988458    -40.718844
PC05  21857.652289  36027.924410    203.351136    -23.086202
PC06 -16735.278530  28731.354091 -26068.507769    216.013161
PC07  -6053.780198  40618.651681  -9216.081086    142.502371
PC08   -603.574432  23215.916787  35242.832562    523.604808
PC09 -10011.180400  27553.573992 -30107.537088   -779.782348
PC10   -890.604831  41708.756284  -3457.442486     49.089404
PC11  18024.048371 -18963.026557  -9672.471961   -228.393558
PC12  24868.627012 -10057.263700   7757.744024    352.648812
PC13   6040.381162  26817.076197  32219.321598    161.465267
PC14   7249.544498 -23554.125172 -13124.487109    278.829933
PC16 -21524.874914  28139.697739 -22900.451850     99.150993
PC19  -1029.840350  27512.675192   4537.691993   -902.681347
PC20 -11493.424340  17258.859523  18673.787453    800.893851
PC21  15804.500954   4199.199384 -22599.455043   -925.046280
PC22  10525.851082  22358.774192 -12951.219132   -732.961578
PC23 -18419.318741 -17814.670205  11034.991495   -871.306919
PC24  19113.045776  -6206.231888  19359.447997   -657.373224
PC25  -1177.985800 -17601.172090  21606.204394     41.586839
PC26  26246.423866   6535.251712   6934.153361    -51.738382
PC27 -23415.047570   3080.058949 -14891.566949     68.228100
PC28 -11421.721999 -11395.724460 -22761.272509     48.761117
PC29  -7865.323784  20462.851648  17266.453853     55.513031
PC30 -22296.837531  16776.684164    901.193200      1.220647
PC32 -15857.063498  -4197.939883  22586.989758   -678.358199
PC33    918.681668 -27512.031749  -4608.537583   -892.059128
PC34  21753.587476 -17336.893049  -2084.193238     64.027795
PC35  10297.986637  12274.625992  22841.731813    139.148618
PC36     91.625965  17429.117892 -21779.377133   -758.102884
PC37 -26073.776103  -8097.200124  -5689.874391   -877.030587
PC38  -8995.318579  21440.910030  35219.775617     45.873028
PC39 -23545.361585  29151.641947 -19527.578178     -1.104192
PC40 -11923.295393  37991.253523 -13589.182237    -10.494662
PC41 -10374.744758 -22716.227502  12497.185046   -394.887094
PC42  12021.297459 -16159.059692 -19282.817112   -876.827411
PC43   8610.496171 -20618.067335 -16709.482560     30.791400
PC44  23243.790723  -3675.779643  14966.780887    149.250850
PC45  18755.693125  17674.146856 -10748.722944    -36.371854
PC46 -17572.804535   7521.945024 -20322.289917    -20.457127
PC59      0.000000      0.000000      0.000000 999999.999999
PC60   7298.312362  41505.691439   1465.083974     -0.672933
PE01  11562.044440 -12527.448515  24196.915179   -579.379082
PE02 -11316.862263  12848.069670 -24152.030060      9.361174
PE03 -17432.531899  22635.289968   7720.420047   -631.110755
PE04   5404.268407 -27163.207089  10439.622262    -16.962642
PE05 -19494.272735   4675.619930  21775.093907   -113.797722
PE07  10136.423652  15764.596171 -22911.406316     -8.206677
PE08  -5430.988609  27159.513215 -10440.667657     -4.865202
PE09  -9898.453454 -15876.547284  22934.654964   -768.646767
PE10  -9502.379868 -14764.996832 -23828.516606   -498.741429
PE11 -20318.005725 -10848.773891 -18599.812821     60.802157
PE12   1775.932510 -16167.639806 -24725.665581   -340.201237
PE13  19512.742383  11191.746934  19248.100257    430.324148
PE14  17805.119597 -24480.414339   1179.293756     88.312748
PE15  -2133.372395  16106.964531  24754.163377    700.064164
PE18 -20163.991520  13749.218956 -10292.671762   -612.873514
PE19  18430.303827 -20807.984037 -10164.464429  -3710.602441
PE21  20584.900370   6000.839794  20410.146862   -501.103572
PE24 -18108.444585 -23076.907649  -3851.552080  -1009.017490
PE25 -20645.372781  -6301.879189 -20243.327977   -595.220081
PE26  29548.502713   -691.733775   1675.139846  -1877.534869
PE27  18593.881647  22557.702069   4712.993664   -466.342564
PE30   4953.327647  25527.358013 -14173.813823  -1088.639904
PE31  -5659.090922 -25662.188675  13617.675539   -511.005472
PE33  22378.305431 -11472.967223 -15599.674236   -455.349665
PE34 -22214.730951  11599.535908  15744.910548    -20.294105
PE36 -29494.501484    237.915686  -2506.051504   -477.310131
PG01 -12439.672824 -13357.890200 -19730.817338    235.963863
PG02  15332.270580  11905.163324  18667.276626   -632.328605
PG03 -12312.547850 -23582.099675  -1087.032792   -375.212714
PG04  -4877.253958 -17424.403213  19409.912655    -66.064407
PG05   2796.696895  22483.620067  13591.576396   -108.578359
PG06 -23694.886901   6315.400729  10375.420857    542.702979
PG07 -24174.759606  -7214.781712   9482.184265    272.491275
PG08   3732.606646 -23347.800597 -11752.992868    -99.285746
PG09 -13777.116645  -6708.925289  21615.146302   -251.325594
PG10  16564.323788   1021.974886 -20647.124594    -16.669147
PG11 -13718.770979  12351.926134  19092.776103    -59.645154
PG12   9900.164306  24634.291787  -2182.331488   -317.505287
PG13 -12132.059280  22581.597136  -6739.859153    444.223775
PG14 -17560.883900  -3467.363763 -19652.157893    -65.892901
PG15   -313.142856  23718.816213 -12108.245601     -2.975233
PG16   3126.147306 -20371.083623  16197.980710   -525.915020
PG17 -18736.390411   6888.145328 -17122.575890    686.925593
PG18  25227.476229   5376.076130   6646.608865    -64.165554
PG19 -19384.777997  15709.094021  -8938.891529    252.271838
PG20  -6717.904229  15417.423189  20628.060820    462.723661
PG21  -3964.423367 -14616.346037 -21269.261623    153.516705
PG22  17960.275306 -18513.494665  -5508.762936    387.436689
PG23  18754.790799  11957.935185 -14623.872276      0.331362
PG24   8593.624901  14789.225812 -20748.040961      9.734071
PG25  16658.772672  19687.136498   6634.460870    403.255299
PG26  11359.575330 -11132.651625  21139.203395    238.667946
PG27  12369.400250 -23200.104320  -1741.670896    149.750372
PG29  11240.460164   9715.660073  21969.131510   -574.892031
PG30 -26547.962464   1150.353865  -2516.222523   -535.163949
PG31  23164.884784  -7099.728374  11235.246325   -203.667059
PG32  18669.971765 -10209.882312 -15612.628691   -334.216414
PJ02 -20887.467728  21291.498533 -25198.864271     -0.348154
PJ03 -29318.772502  28880.501128  14689.589152     -6.965543
PJ04 -27196.353398  27810.017547  22258.408050    115.590778
PJ07 -25379.260148  33679.577360    -44.218727     -0.016182
PR01  11046.600149     80.157818 -22995.010121     19.767915
PR02   9159.834481 -18680.950062 -14668.300841    -23.385127
PR03   1848.095585 -25330.176121   2019.068427     69.299230
PR04  -6025.587140 -17787.831845  17275.402074    169.090990
PR05 -10780.439467   -568.282076  23118.040733    104.752685
PR06  -8273.651294  19825.535731  13762.208399    -85.915516
PR07  -1563.497875  25344.801460  -2684.025558     46.331576
PR08   6206.538720  17718.063507 -17234.775633    -68.608356
PR09 -10335.321997   6327.366856 -22439.574167     93.730655
PR10   4668.101729  15110.604372 -20052.136591    -88.791392
PR11  18526.230158  16542.137250  -5782.522306     13.873995
PR12  20772.218377   7489.136737  12811.042347     23.713441
PR13  11547.646351  -4870.941461  22199.041741    -30.067703
PR14  -6081.449328 -15775.120526  19112.789790     24.094025
PR15 -18841.937643 -16530.605443   4743.799909     92.258586
PR17   6591.526842 -13164.356114 -20826.936691    588.090797
PR18 -10498.999856  -6458.441442 -22318.342110     57.456069
PR19 -21655.836869   2084.666157 -13305.654394   -215.047468
PR20 -21599.293726  11684.981712   6987.987947    -84.245118
PR21  -4947.101268  12664.972206  21582.306127   -358.519152
PR22  11088.781963   6857.354498  21952.843764     19.078678
PR23  23323.018212  -5404.837616   8800.210472    -66.006275
PR24  20861.807215 -12624.441555  -7492.855538    133.645366
PR25  -7458.352459  13147.007666  20550.588135     49.233025
EOF
